STARLINK-38024          
1 69975U 26159A   26201.58335648 -.00060439  00000+0 -31626-3 0  9996
2 69975  97.2850  40.5644 0001529  89.0444 291.7706 15.80864784  2711
STARLINK-37993          
1 69976U 26159B   26201.58335648 -.00048415  00000+0 -25295-3 0  9992
2 69976  97.2850  40.5659 0001318  76.6604 308.4336 15.80856550  2711
STARLINK-37995          
1 69977U 26159C   26201.58335648 -.00045822  00000+0 -23932-3 0  9998
2 69977  97.2848  40.5676 0001186  77.5015 311.8592 15.80854639  2715
STARLINK-38057          
1 69978U 26159D   26201.58335648 -.00070537  00000+0 -36976-3 0  9992
2 69978  97.2847  40.5692 0001490  76.8604 316.7848 15.80858409  2714
STARLINK-38063          
1 69979U 26159E   26201.58335648 -.00032367  00000+0 -16865-3 0  9997
2 69979  97.2848  40.5713 0001706  89.6701 308.2470 15.80842985  2719
STARLINK-38093          
1 69980U 26159F   26201.58335648 -.00055989  00000+0 -29287-3 0  9996
2 69980  97.2849  40.5728 0001648  83.3738 318.8134 15.80856874  2710
STARLINK-38050          
1 69981U 26159G   26201.58335648 -.00047298  00000+0 -24714-3 0  9991
2 69981  97.2851  40.5749 0001208  79.3990 327.0662 15.80850419  2711
STARLINK-38065          
1 69982U 26159H   26201.58335648 -.00070133  00000+0 -36768-3 0  9998
2 69982  97.2850  40.5771 0001192  80.8051 329.9463 15.80855465  2719
STARLINK-38077          
1 69983U 26159J   26201.58335648 -.00041579  00000+0 -21714-3 0  9996
2 69983  97.2851  40.5787 0001143  73.6933 341.3336 15.80838178  2712
STARLINK-38068          
1 69984U 26159K   26201.58335648 -.00013621  00000+0 -70438-4 0  9992
2 69984  97.2850  40.5807 0001064  87.3612 331.9347 15.80829135  2713
STARLINK-38089          
1 69985U 26159L   26201.58335648 -.00052221  00000+0 -27309-3 0  9990
2 69985  97.2851  40.5822 0001628  84.8797 338.6920 15.80848871  2713
STARLINK-38073          
1 69986U 26159M   26201.58335648 -.00154071  00000+0 -81499-3 0  9997
2 69986  97.2851  40.5838 0001445  62.9233   4.8898 15.80892206  2717
STARLINK-38099          
1 69987U 26159N   26201.58335648 -.00497512  00000+0 -27060-2 0  9991
2 69987  97.2851  40.5855 0001544  79.0080 352.9532 15.81143905  2714
STARLINK-38064          
1 69988U 26159P   26201.58335648 -.01248315  00000+0 -70248-2 0  9994
2 69988  97.2853  40.5891 0001611  80.3129 359.7430 15.81813693  2711
STARLINK-38080          
1 69989U 26159Q   26201.58335648 -.00864013  00000+0 -48305-2 0  9992
2 69989  97.2849  40.5874 0001493  81.6467 354.3990 15.81454080  2718
STARLINK-38070          
1 69990U 26159R   26201.58335648 -.01503515  00000+0 -83569-2 0  9993
2 69990  97.2852  40.5912 0001567  64.8818  19.1425 15.82144294  2715
STARLINK-38042          
1 69991U 26159S   26201.58335648 -.01517602  00000+0 -83462-2 0  9998
2 69991  97.2851  40.5924 0001690  67.2302  20.6777 15.82395488  2710
STARLINK-38071          
1 69992U 26159T   26201.58335648 -.01435095  00000+0 -77528-2 0  9990
2 69992  97.2853  40.5946 0001778  54.0956  37.6457 15.82620886  2719
STARLINK-38082          
1 69993U 26159U   26201.58335648 -.01438808  00000+0 -76995-2 0  9993
2 69993  97.2853  40.5953 0001605  58.8838  36.6558 15.82831084  2713
STARLINK-38090          
1 69994U 26159V   26201.58335648 -.01460825  00000+0 -77482-2 0  9990
2 69994  97.2851  40.5993 0001517  63.7259  35.5676 15.83060680  2716
STARLINK-38084          
1 69995U 26159W   26201.58335648 -.01529778  00000+0 -80716-2 0  9998
2 69995  97.2852  40.5983 0001782  68.3574  34.6847 15.83295303  2714
STARLINK-38085          
1 69996U 26159X   26201.58335648 -.01526498  00000+0 -79657-2 0  9997
2 69996  97.2856  40.5999 0001661  70.1669  36.4928 15.83523735  2711
STARLINK-38091          
1 69997U 26159Y   26201.58335648 -.01512831  00000+0 -78142-2 0  9992
2 69997  97.2856  40.6012 0001637  63.8003  46.5240 15.83713350  2716
STARLINK-38086          
1 69998U 26159Z   26201.58335648 -.01510432  00000+0 -77224-2 0  9998
2 69998  97.2857  40.6029 0001846  67.2008  46.7008 15.83920955  2716
