OBJECT_NAME,OBJECT_ID,EPOCH,MEAN_MOTION,ECCENTRICITY,INCLINATION,RA_OF_ASC_NODE,ARG_OF_PERICENTER,MEAN_ANOMALY,EPHEMERIS_TYPE,CLASSIFICATION_TYPE,NORAD_CAT_ID,ELEMENT_SET_NO,REV_AT_EPOCH,BSTAR,MEAN_MOTION_DOT,MEAN_MOTION_DDOT
STARLINK-38024,2026-159A,2026-07-20T14:00:01.999872,15.80864784,.00015291,97.2850,40.5644,89.0444,291.7706,0,U,69975,999,271,-.31626088E-3,-.60439E-3,0
STARLINK-37993,2026-159B,2026-07-20T14:00:01.999872,15.80856550,.00013181,97.2850,40.5659,76.6604,308.4336,0,U,69976,999,271,-.25294692E-3,-.48415E-3,0
STARLINK-37995,2026-159C,2026-07-20T14:00:01.999872,15.80854639,.00011862,97.2848,40.5676,77.5015,311.8592,0,U,69977,999,271,-.23931608E-3,-.45822E-3,0
STARLINK-38057,2026-159D,2026-07-20T14:00:01.999872,15.80858409,.00014907,97.2847,40.5692,76.8604,316.7848,0,U,69978,999,271,-.36975708E-3,-.70537E-3,0
STARLINK-38063,2026-159E,2026-07-20T14:00:01.999872,15.80842985,.00017066,97.2848,40.5713,89.6701,308.2470,0,U,69979,999,271,-.16864578E-3,-.32367E-3,0
STARLINK-38093,2026-159F,2026-07-20T14:00:01.999872,15.80856874,.00016483,97.2849,40.5728,83.3738,318.8134,0,U,69980,999,271,-.29286886E-3,-.55989E-3,0
STARLINK-38050,2026-159G,2026-07-20T14:00:01.999872,15.80850419,.00012089,97.2851,40.5749,79.3990,327.0662,0,U,69981,999,271,-.24713583E-3,-.47298E-3,0
STARLINK-38065,2026-159H,2026-07-20T14:00:01.999872,15.80855465,.00011927,97.2850,40.5771,80.8051,329.9463,0,U,69982,999,271,-.36768176E-3,-.70133E-3,0
STARLINK-38077,2026-159J,2026-07-20T14:00:01.999872,15.80838178,.00011433,97.2851,40.5787,73.6933,341.3336,0,U,69983,999,271,-.21714468E-3,-.41579E-3,0
STARLINK-38068,2026-159K,2026-07-20T14:00:01.999872,15.80829135,.00010647,97.2850,40.5807,87.3612,331.9347,0,U,69984,999,271,-.70438384E-4,-.13621E-3,0
STARLINK-38089,2026-159L,2026-07-20T14:00:01.999872,15.80848871,.00016283,97.2851,40.5822,84.8797,338.6920,0,U,69985,999,271,-.2730943E-3,-.52221E-3,0
STARLINK-38073,2026-159M,2026-07-20T14:00:01.999872,15.80892206,.00014458,97.2851,40.5838,62.9233,4.8898,0,U,69986,999,271,-.81499473E-3,-.154071E-2,0
STARLINK-38099,2026-159N,2026-07-20T14:00:01.999872,15.81143905,.00015442,97.2851,40.5855,79.0080,352.9532,0,U,69987,999,271,-.2706047E-2,-.497512E-2,0
STARLINK-38064,2026-159P,2026-07-20T14:00:01.999872,15.81813693,.00016113,97.2853,40.5891,80.3129,359.7430,0,U,69988,999,271,-.70248335E-2,-.1248315E-1,0
STARLINK-38080,2026-159Q,2026-07-20T14:00:01.999872,15.81454080,.00014936,97.2849,40.5874,81.6467,354.3990,0,U,69989,999,271,-.48305435E-2,-.864013E-2,0
STARLINK-38070,2026-159R,2026-07-20T14:00:01.999872,15.82144294,.00015672,97.2852,40.5912,64.8818,19.1425,0,U,69990,999,271,-.83569381E-2,-.1503515E-1,0
STARLINK-38042,2026-159S,2026-07-20T14:00:01.999872,15.82395488,.00016904,97.2851,40.5924,67.2302,20.6777,0,U,69991,999,271,-.83461919E-2,-.1517602E-1,0
STARLINK-38071,2026-159T,2026-07-20T14:00:01.999872,15.82620886,.00017783,97.2853,40.5946,54.0956,37.6457,0,U,69992,999,271,-.77528031E-2,-.1435095E-1,0
STARLINK-38082,2026-159U,2026-07-20T14:00:01.999872,15.82831084,.00016058,97.2853,40.5953,58.8838,36.6558,0,U,69993,999,271,-.76994882E-2,-.1438808E-1,0
STARLINK-38090,2026-159V,2026-07-20T14:00:01.999872,15.83060680,.00015179,97.2851,40.5993,63.7259,35.5676,0,U,69994,999,271,-.77481802E-2,-.1460825E-1,0
STARLINK-38084,2026-159W,2026-07-20T14:00:01.999872,15.83295303,.0001782,97.2852,40.5983,68.3574,34.6847,0,U,69995,999,271,-.80715691E-2,-.1529778E-1,0
STARLINK-38085,2026-159X,2026-07-20T14:00:01.999872,15.83523735,.00016614,97.2856,40.5999,70.1669,36.4928,0,U,69996,999,271,-.796566E-2,-.1526498E-1,0
STARLINK-38091,2026-159Y,2026-07-20T14:00:01.999872,15.83713350,.00016377,97.2856,40.6012,63.8003,46.5240,0,U,69997,999,271,-.78141988E-2,-.1512831E-1,0
STARLINK-38086,2026-159Z,2026-07-20T14:00:01.999872,15.83920955,.00018465,97.2857,40.6029,67.2008,46.7008,0,U,69998,999,271,-.77224253E-2,-.1510432E-1,0
